Name,Address,City,PostalCode,Country
Geek Out! Argentina,Darregueyra 2484,Buenos Aires,C1425,Argentina
The Board Game Cafe,Holmberg 2000,Buenos Aires,1430,Argentina
Magic Lair,Avenida Juan Bautista Alberdi 1170,Ciudad de Buenos Aires,1406,Argentina
Invictvs Café y Salon de Juegos,Italia 101,Paraná,E3100,Argentina
BrainHackr,"208 Prospect Rd, Prospect, South Australia",Adelaide,5082,Australia
The Lost Dice,254 Main Rd blackwood,Adelaide,5051,Australia
The Loot Room,"Shop 9, 29 Logan River Rd",Beenleigh,4207,Australia
Vault Games,"LG, 123 Charlotte St",Brisbane,4000,Australia
Guild,150 London Cct,Canberra,ht,Australia
Queen of Spades,189 Smith St,Fitzroy,3065,Australia
downstairs@lab,328 Little Lonsdale St,Melbourne,3000,Australia
Marche Board Game Cafe,63 A'Beckett St,Melbourne,3000,Australia
Cafe Myriade,"2/98, Lake Street, Northbridge",Perth,6003,Australia
Pause / Menu,95 Acland Street,St Kilda,3182,Australia
Brot & Spiele,Mariahilferstraße 17,Graz,8020,Austria
Brot und Spiele,Laudongasse 22,Vienna,1080,Austria
Café Benno,Alser Str. 67,Vienna,1080,Austria
Café Sperlhof,Große Sperlgasse 41,Vienna,1020,Austria
SpielBar,Lederergasse 26,Vienna,1080,Austria
The Raven's Nest,Rd No 255,Jannusan,0000,Bahrain
The Playground (Hoofdkerk),Hoofdkerkstraat 7,Antwerp,2000,Belgium
The Playground (Station),Pelikaanstraat 3/1270,Antwerp,2018,Belgium
Outpost Antwerpen,Beggaardenstraat 6 ,Antwerpen,2000,Belgium
The Playground,Hoofdkerkstraat 7,Antwerpen,2000,Belgium
La Luck Brussels,74 rue Washington,Brussels,1050,Belgium
La Table Food & Games,63 rue de l'enseignement,Brussels,1000,Belgium
Outpost Brussels,Rue de la Tribune 8,Brussels,1000,Belgium
Kings and Queens,Rue du Fossé aux Loups 27,Bruxelles,1000,Belgium
OutPost Gamecenter,Ottergemsesteenweg 13 ,Gent,9000,Belgium
World's End Comics & Games Center,Ketelvest 51,Gent,9000,Belgium
Oberonn,Kempische steenweg 27/1,Hasselt,3500,Belgium
Yam-toto,En Hors-Chateau 43,Liège,4000,Belgium
Aux 3D Board Game Cafe,"Place Abbe Joseph, 11",Namur,5000,Belgium
Brood en Spelen,Stationsstraat 41,Sint-Niklaas,9100,Belgium
De Ezel,Piepelpoel,Tongeren,3700,Belgium
A Fenda,"Rua Antonio Alves, 24-42",Bauru,17011210,Brazil
Funtasy Bar e Jogos,"Rua Tomé de Souza, 1145",Belo Horizonte,30110-035,Brazil
Ludoteca BGC,Asa Sul CLS 315 Loja 13,Brasília,70346-090,Brazil
Metropoly,"Avenida Professor Atílio Martini, 469.",Campinas,13083-830,Brazil
JogaBurger,"Av. Nelly Martins, 76 - Portal Itayara",Campo Grande,79032-295,Brazil
Lends Club - Curitiba,"Rua Coronel Dulcídio, 1822 Água Verde",Curitiba,80250-100,Brazil
Cafe Ludico,"R. Delmiro de Farias, 685",Fortaleza,60416-030,Brazil
Covil Game Bar,"Rua do Saboó, 12 - Jardim Barbosa",Guarulhos,07111-030,Brazil
Lends Club - Porto Alegre,"Rua Lopo Gonçalves, 327 Cidade Baixa",Porto Alegre,90050-350,Brazil
Lends Club - Recife,"Rua Conde de Irajá, 486 Torre",Recife,50710-310,Brazil
Boards & Burgers Hamburgueria e Ludoteca,"Rua Uruguai, 266",Rio de Janeiro,20510052,Brazil
Game of Boards,"Rua Benjamin Constant, 48 - Glória",Rio de Janeiro,20241-150,Brazil
Lends Club - Santa Maria,"Rua Duque de Caxias, 1074 Centro",Santa Maria,97015-001,Brazil
Clube Playful,"Rua Santa Clara, 447, Vila Adyanna",São José dos Campos,12243-630,Brazil
Clube de Jogos Doidos por Dados,"R. Dr. Neto de Araújo, 397",Sao Paulo,04111-001,Brazil
Ludus Luderia,"Rua Treze de Maio, 972",Sao Paulo,01327-000,Brazil
DiceZ,"Av. Pompéia, 2549",São Paulo,05022-001,Brazil
Encounter,"Alameda dos Nhambiquaras, 2013 - Moema",São Paulo,04090-013,Brazil
Taverna dos Pandas,"Rua Frei Modesto Maria de Taubaté, 25. Bairro: Jardim Santa Clara.",Taubaté,12080-000,Brazil
Távola Lúdica,"Rua dos Estudantes, 204 lj 01",Viçosa,36570-000,Brazil
Taverna dos Jogos,"Av. Desembargador Dermeval Lyrio, 600",Vitória,29065340,Brazil
Meeple People,Bul. Tsar Boris III Obedinitel 52,Plovdiv,4000,Bulgaria
Offline Café,Danail Nikolaev 39,Plovdiv,4000,Bulgaria
BoardGames Ruse,ул. Борисова 8,Ruse,7000,Bulgaria
3 Trolls,"ul. ""Oborishte"" 80",Sofia,1505 Oborishte,Bulgaria
The Happy Damrei,#1 Sabay Sabay Street 174,Phnom Penh,12210,Cambodia
Jef’s Café,5012 50 St #104,Beaumont,T4X 1E6,Canada
Dicken's Pub Gamer Sundays,1000 9th Avenue SW,Calgary,T2P 2Y6,Canada
Gamer Sundays @ Dickens Pub,1000 - 9th & 9th SW,Calgary,T2P 2Y6,Canada
Metal Galaxy Social Games & Bistro,4624 MacLeod Trail SW,Calgary,T2G 5E8,Canada
Shoebox Games & Cafe,509 McKnight Blvd,Calgary,T2E 8P1,Canada
The Hexagon Board Game Cafe,#200 1140 Kensington Rd NW,Calgary,T2N 3P3,Canada
Fox & Fable Book & Game Cafe,4937 49th Street,Camrose,T4V 1N3,Canada
Board N Brew Cafe,9929 103 Street,Edmonton,T5K 0Y1,Canada
Table Top Cafe 1.0,5716 75 Street,Edmonton,T6E 5X6,Canada
Table Top Cafe 2.0,10235 124 Street #100,Edmonton,T5N 1P9,Canada
The Gamer's Lodge,10459 124 St.,Edmonton,T5N 1R7,Canada
The Hexagon Board Game Cafe,10750 82 Ave NW,Edmonton,T6E 2A8,Canada
Card’s Board Game Cafe,10001 100 Ave Unit 102,Grande Prairie,T8V 0V2,Canada
Round Table Board Gamerie,502 5 Street South,Lethbridge,T1J 2B8,Canada
The Glade Board Game Cafe,5015 53 Ave.,Tofield,T0B 4J0,Canada
Boardwalk Cafe and Games,2546 Montrose Ave,Abbotsford,V2S 3T3,Canada
UniTea Cafe & Lounge,210 Railway Ave # 100,Ashcroft,V0K 1A0,Canada
Games & Grounds Coffee House,576 England Ave #103,Courtenay,V9N 2N3,Canada
Make/Do Family Board Game Cafe & Makerspace,116 Northwest Boulevard,Creston,V0B 1G0,Canada
The Board Room Cafe,353 Market Ave,Grand Forks,V0H 1H0,Canada
Muninn's Post,575 Bernard Ave,Kelowna,V1Y 6N9,Canada
The Raving Gamer,"5735, 203rd Street – Unit 106",Langley,V3A 8A7,Canada
The Raving Gamer Bistro,106 - 5735 203 Street,Langley,V3A 8A7,Canada
The Board Game House,411B Fitzwilliam Street,Nanaimo,V9R 3A9,Canada
Pizzeria Ludica,601 Carnarvon Street,New Westminster,V3M 1E3,Canada
Sanctuary Games,171 B Hudson ave NE,Salmon Arm,V1E1A0,Canada
Pizzeria Ludica,189 Keefer Place,Vancouver,V6B 6L4,Canada
The Storm Crow Alehouse,1619 West Broadway,Vancouver,V6J 1W9,Canada
The Storm Crow Tavern,1305 Commercial Drive,Vancouver,V5L 3X5,Canada
Interactivity Board Game Cafe,723 Yates St.,Victoria,V8W 1L4,Canada
Tabletop Crêpes and Games,1369 Johnston Road,White Rock,V4B 3Z3,Canada
I Want That Stuff,1150 19 St,Brandon,R7B 2M4,Canada
Across the Board Cafe,211 Bannatyne Ave & Main St,Winnipeg,R3B 1M3,Canada
Unplugged: A Board Games Cafe,418 Queen Street,Fredericton,E3B 1B6,Canada
Offline Board Game Cafe,98 Prince William Street,Saint John,E2L 2B3,Canada
Bistro ludique Le Moque-Tortue Games Bistro,402 Main Street,Shediac,E4P2G1,Canada
Mochanopoly,204 Water Street,St. John's,A1C 1A9,Canada
Boardwalk Cafe & Bar,6386 Quinpool Rd,Halifax,B3L 4N2,Canada
The Board Room Game Cafe,1256 Barrington St,Halifax,B3J 1Y6,Canada
Perplexcity,55 Cedar Pointe Drive Unit 602,Barrie,L4N 5R7,Canada
Pieces Boardgame cafe,222 Bell Boulevard unit 8.,Belleville,K8P 5L7,Canada
Wildcard Board Game Cafe,35 Main St N,Brampton,L6X 1M8,Canada
Critical Hit Gaming Lounge,1540 Durham Regional Hwy 2,Courtice,L1E 2R6,Canada
Funny Bones,3029 Lake Shore Boulevard West,Etobicoke,M8V 1K5,Canada
Tea Beards,101 Muskoka Road South,Gravenhurst,P1P 1X3,Canada
The Round Table Board Game Cafe & Tavern,32 Essex St,Guelph,N1H 3K8,Canada
Gameopolis,223 King Street East,Hamilton,L8N 1B6,Canada
Mancala Monk,1229 Cannon Street East Unit A,Hamilton,L8H 1T8,Canada
Waypoint Games and Café,1044 King St W,Hamilton,L9A 1S4,Canada
Wonderland Kingston,500 Gardiners Rd Unit 12A,Kingston,K7M 7W9,Canada
The Adventurers Guild Board Game Cafe & Tavern,36 Ontario st N,Kitchener,N2H 4Y4,Canada
Game Knight Leagues,38 Adelaide St N Unit 2A,London,N6B 3N5,Canada
Omescape,"7501 Woodbine Ave, Unit 7",Markham,L3R 2W1,Canada
Dicey Business - Board Game Cafe,6905 Millcreek Dr,Mississauga,L5N 6A3,Canada
Domics' GG! Gaming Café,5955 Latimer Drive unit 1B,Mississauga,L5V 0B7,Canada
LVLUP GAMES,"833 Westlock Rd, Unit #9",Mississauga,L5C 1K7,Canada
Chat Noir,57 Whitewood Ave W P.O.Bx 910,New Liskeard,P0J 1P0,Canada
Cards and Coasters,31 Mississaga St West,Orillia,L3V 3A5,Canada
Brew Wizards Board Game Café,74 Celina Street,Oshawa,L1H 4N2,Canada
The Loft Board Game Lounge,14 Waller St,Ottawa,K1N 9C4,Canada
North Of Exile Games,"61 Main St, Penetanguishene, ON L9M 1S8",Penetanguishene,L9M1S8,Canada
The Boardwalk Board Game Lounge,261 George Street North,Peterborough,K9J 3G9,Canada
Omescape,"1187 Kennedy Rd, Upper",Scarborough,M1P 2L2,Canada
Ludology,"52 St. Paul Street, Unit 2",St. Catharines,L2R3M2,Canada
Mugs N Meeples Board Game Lounge,147 St Paul Crescent,St. Catharines,L2S 1N2,Canada
Let's Scrabbalatte,66 Elm St,Sudbury,P3C 1R8,Canada
A-Game Cafe,797 Dundas Street W,Toronto,M6J 1V2,Canada
Bampot house of tea and board games,201 Harbord Street,Toronto,M5S 1H6,Canada
Face to Face Games,1398 Danforth Ave,Toronto,M4J 1M9,Canada
For the Win cafe,3216 Yonge street,Toronto,M4N 2L2,Canada
Presotea Ontario Canada,#H16A - 220 Yonge St.,Toronto,M5B2H1,Canada
Riddle Room,579 Yonge St,Toronto,M4Y 1Z2,Canada
Snakes & Lattes - Annex,600 Bloor St. W,Toronto,M6G 1K4,Canada
Snakes & Lattes - College,489 College St.,Toronto,M6G 1A5,Canada
Snakes & Lattes - Midtown,45 Eglinton Ave. E,Toronto,M4P 1G6,Canada
Spielhaus,1187 St Clair Avenue West,Toronto,M6E 1B5,Canada
The Loft Board Game Lounge,171 College St,Toronto,M5T1P7,Canada
The Storm Crow Manor,580 Church St,Toronto,M4Y 2E5,Canada
Time Capsule Board Games Cafe & Bar,2183 Danforth Ave,Toronto,M4C 1K4,Canada
Crossroads Board Game Cafe,"258 King Street N., 2nd Floor",Waterloo,N2J 2Y9,Canada
Games on Tap Board Game Cafe,321 Weber St. N,Waterloo,N2J 3H8,Canada
Leisure Loft,30 King Street,Welland,L3B3H9,Canada
Drinks & Dragons,1121 Dundas Street E,Whitby,L1N 2K5,Canada
Wizards of Walkerville,1295 Ottawa street,Windsor,N8X 2E5,Canada
Small Print Board Game Café,119 Grafton St. 2nd Level,Charlottetown,C1A 1K9,Canada
Kafée Dragon,239 Boulevard Cartier,Beloeil,J3G 3R2,Canada
Le Joker Pub Ludique,185 Heriot Street,Drummondville,J2C 1J9,Canada
L'As des jeux,"325 Gréber, unité E-1B",Gatineau,J8T 8J3,Canada
Multizone,"140, Boul. Gréber",Gatineau,J8T 6H5,Canada
Parle -Bistro ludique,325 Greber,Gatineau,J8T8J3,Canada
Café Socié Thé,123 Rue Saint Paul,Joliette,J6E 5G2,Canada
Premier Joueur - Laval,2000 le Corbusier,Laval,H7S 2C9,Canada
Le Joker Pub Ludique,1190B Rue de Courchevel,Lévis,G6W 5M6,Canada
Le Joker Pub Ludique,1170 Chemin de Chambly,Longueuil,J4J 3W6,Canada
La Recreation,404 Rue Ontario E,Montreal,H2L 1N6,Canada
Le Colonel Moutarde,4418 St-Denis,Montreal,H2J 2L1,Canada
Randolph Pub Ludique Centropolis-Laval,490 promenade du Centropolis,Montreal,H7T 2Z6,Canada
Randolph Pub Ludique Quartier Latin,"2041, rue Saint-Denis",Montreal,H2X 3K8,Canada
Randolph Pub Ludique Rosemont,6505 Rue des Ecores,Montreal,H2G 2J8,Canada
Gamerz Cafe,4820 Boulevard Saint-Jean,Pierrefonds,H9H4B2,Canada
La Revanche,585 boul. Charest Est,Quebec,G1K 3J2,Canada
Randolph Pub Ludique Repentigny,"408, rue Notre-Dame",Repentigny,J6A 2T1,Canada
La Triche - bistro-boutique de jeux,"31, rue Saint-Eustache",Saint-Eustache,J7R 2L1,Canada
"L’emprise, resto-pub Ludique",470 rue Mondor,Saint-Hyacinthe,J2S5A7,Canada
"Tome 2, Bistro Ludique",42 rue Saint-Jacques,Saint-Jean-sur-Richelieu,J3B 2J7,Canada
La boutique Tabletop,"3769, Chemin d'Oka",Saint-Joseph-du-Lac,J0N 1M0,Canada
Les Dés Truqués,772 5e rue de la Pointe,Shawinigan,G9N 1E7,Canada
Montagu Pub Ludique,206 Rue Wellington N,Sherbrooke,J1H 5B8,Canada
Les mauvais perdants,4450 Boulevard des Forges,Trois-Rivières,G8Y 1W5,Canada
Little Chicago Gaming Parlour,361 Main St N L11,Moose Jaw,S6H 0W2,Canada
Boards n Beans Cafe,1840 Rose Street,Regina,S4P0J2,Canada
Escape Club Escape Rooms & Board Game Cafe,2410 Dewdney Avenue,Regina,S4R 1H6,Canada
Breakout Escape & Game Lounge,103 2750 Faithfull Ave,Saskatoon,S7K 6M6,Canada
King Me Boardgamery & Cafe,527 20th St. West,Saskatoon,S7M 0X6,Canada
Cafe 2d6,Santa Beatriz 203 Providencia,Santiago,7500496,Chile
Café & Tableros,"Von Schroeder 273, Local 10",Viña del mar,2571526,Chile
Café Repost,Arlegui 262,Viña del mar,2571479,Chile
Cafe Tier 1,Calle 65 #46A-72 Itagui,Itagui,5CH2,Colombia
ManQala,#751 Calle 37,San Pedro,11501,Costa Rica
Mystica TEA & PUB,Palackého třída 78,Brno,612 00,Czech Republic
A Maze in Tchaiovna,Muchova 4,Prague,160 00,Czech Republic
Bohemia Boards & Brews,Charkovská 18,Prague,101 00,Czech Republic
Aalborg Brætspilscafé,Vesterbro 30,Aalborg,9000,Denmark
Dice 'n Drinks,Sankelmarksgade 15,Aalborg,9000,Denmark
Aarhus Brtspilscafe Fredensgade,Fredensgade 38,Aarhus C,8000,Denmark
Aarhus Brtspilscafe Vestergade,Vestergade 58A,Aarhus C,8000,Denmark
Bastard Cafe,Rådhusstræde 13,Copenhagen,1466,Denmark
Social Corner Board Game Cafe,Fiolstræde 25,Copenhagen,1171,Denmark
The Bastard Cafe,Rådhusstræde 13,Copenhagen,1466,Denmark
Topdeck,Carlsbergvej 32B,Hillerød,3400,Denmark
Cafe Firefly,Munkegade 4,Kolding,6000,Denmark
Papas Papbar,Skt. Knuds Kirkestræde 2A,Odense,5000,Denmark
Æ Bræt,Store Rådhusgade 19C,Sønderborg,6400,Denmark
Anno 1300,Möwenstraße 68,Wilhelmshaven,26388,Deutschland
Playboard Cafe,Antonio de la Maza,Bella Vista,10114,Dominican Republic
Playboard Cafe,,Santo Domingo,,Dominican Republic
El Baul del Enano,Isla Pinzón N43-31,Quito,170501,Ecuador
Ready Steady Roll ,Ivy Lodge ,Bedford,MK44 1ND,England
Counter Culture Games,26 Baddow Road,Chelmsford,CM2 0DG,England
Slice and Dice (monthly pop up),7-9 Fye Bridge Street,Norwich,NR3 1LJ,England
Zatu Board Game Café,Bowthorpe Shopping Centre,Norwich,NR5 9HA,England
The Games Table,"86 Magdalen St, Norwich ",Norwich ,NR311JF,England
Ready Steady Roll,"Ivy Lodge, A6 Rushden Road",Sharnbrook,MK44 1ND,England
"Ready, Steady Roll","Studio 5, Ivy Lodge Farm, A6 Rushden Road",Sharnbrook,MK44 1ND,England
d20 Board Game Cafe,87 Queens Road,Watford,WD17 2QN,England
Bean Gaming,22 Silver Street,Leicester,LE1 5ET,England
Quest,45 Belvoir Street,Leicester,LE1 6SL,England
Red Panda Gaming Cafe,"247 High Street, First floor",Lincoln,LN2 1HW,England
Geek Retreat Nottingham,7 Flying Horse Walk,Nottingham,NG1 2HN,England
Ludorati BGC,72 Maid Marian Way,Nottingham,NG1 6BJ,England
Ludorati Café,72 Maid Marian Way,Nottingham,NG1 6BJ,England
The Dice Cup,68-70 Mansfield Rd,Nottingham,NG1 3GY,England
Ludoquist Board Game Cafe,63 - 67 High Street,Croydon,CR0 1QE,England
Bad Moon Cafe,159a Great Dover St,London,SE1 4GZ,England
Draughts - Board Game Café - Hackney,41 Kingsland High St,London,E8 2JS,England
Draughts - Board Game Café - Waterloo,"Arch 16, Leake St",London,SE1 7NN,England
The Library Pot,86 Kew Rd,Richmond,TW9 2PQ,England
Loading Bar Dalston,97 Stoke Newington Rd,Stoke Newington,N16 8BX,England
tea@HART,102 York Road,Hartlepool,TS26 9DE,England
Fire and Dice,39-41 Borough road,Middlesbrough ,TS1 4AF,England
Meeple Perk,89 Clayton Street,Newcastle upon Tyne,NE1 5PZ,England
Geek Retreat Newcastle,38 Grainger Street,Newcastle-upon-Tyne,NE1 5JG,England
Cherry Moon,32 Bridge Street,Bolton,BL1 2EH,England
Slice & Dice,24 Churchgate House,Bolton,BL1 1HL,England
Critical Hit Games Cafe,61a Kempston Street,Liverpool,L3 8HE,England
Sugar and Dice,33A Cornhill,Liverpool,L1 8DN,England
Tiny Ricks,449 Smithdown Road,Liverpool,L15 3JL,England
Fan Boy Three,25 Hilton St,Manchester,M1 1EL,England
Board Beans,79 Witton Street,Northwich,CW9 5DW,England
Geek Retreat Wirral,"2 Market Street, Hoylake",Wirral,CH47 3BD,England
The Gaming Den,12 London Street,Basingstoke,RG21 7NT,England
c:\ Side Quest,"11 Lower Promenade, Madiera Drive",Brighton,BN2 1ET,England
Dice Saloon,"Unit 6, Longley Industrial Estate, New England St.",Brighton,BN14GY,England
Dice Saloon,"First floor, Vantage Point, New England Road",Brighton,BN1 4GY,England
Loading Bar Brighton,"Unit 11, Lower Promenade, Madiera Drive",Brighton,BN2 1ET,England
Paradice BGC,28-30 The Mall,Bromley,BR1 1TS,England
Comics Games & Coffee,58 North Street,Chichester,PO19 1NB,England
Dice & a Slice,37 Queen Street,Colchester,CO1 2PQ,England
Dice and a Slice,37 Queen Street,Colchester,CO1 2PQ,England
The Mug & Meeple,Town Pier,Gravesend,DA11 0BJ,England
Unplug & Play,17 Jeffries Passage,Guildford,GU1 4AP,England
TRINITY Gaming cafe,"The TRINITY centre, Abinger place, Lewes, BN7 2QA",Lewes,BN7 2QA,England
Digi Diner,59 High Street,Margate,CT9 1DX,England
Geek Retreat Milton Keynes,"207 Queensway, Bletchley",Milton Keynes,MK2 2EE,England
Players Paradice,18-20 Winchester Circle,Milton Keynes ,MK10 0BA,England
Dice,"149 Albert Rd, Portsmouth, Southsea PO4 0JW",Portsmouth,PO4 0JW,England
Playopolis,2 Star Hill,Rochester,ME1 1UX,England
Board in the City CIC,38-40 Onslow Rd,Southampton,SO14 0JG,England
Comics Games & Coffee,"Unit 36, Brooks Shopping Centre",Winchester,SO23 8QY,England
Thirsty Meeples,39 Gay Street,Bath,BA1 2NT,England
Chance & Counters,20 Christmas Steps,Bristol,BS1 5BS,England
Replay Bristol Board Game Bar,196 Cheltenham Rd,Bristol,BS6 5RB,England
Board,79 South Street,Exeter,EX1 1EQ,England
Dice & a Slice,87 High St,Ilfracombe,EX34 9NH,England
Twist,43 Mayflower Street,Plymouth,PL1 1QL,England
Chance & Counters,Custard Factory,Birmingham,B9 4AA,England
Geek Retreat Birmingham,38 The Priory Queensway,Birmingham,B4 7LA,England
Meeple Mayhem,226 Monument Road,Birmingham,b16 9AG,England
Sliced N Diced,850 Bristol Road ,Birmingham,B29 6HW,England
Snax & Ladders Board Game Cafe,41 Watford Rd,Birmingham,B30 1JB,England
Dice Box BGC,137 Regent St,Leamington Spa,CV32 4NX,England
The Dell House,2 Green Lane,Malvern,WR14 4HU,England
Manaflux,Unit 19A  High St The Roebuck Center,Newcastle-under-Lyme,ST5 1SW,England
"Nerdy Coffee Company in Shrewsbury, UK",49 Mardol,Shrewsbury,SY1 1PP,England
Arcane,129 Salop street,Wolverhampton,WV3 0rx,England
Geek Retreat Bradford,23 Bank Street,Bradford,BD1 1PU,England
"Bake, Battle & Roll",24-26 Wood Street,Doncaster,DN1 3LW,England
IQ Gaming,23 Byram Street,Huddersfield,HD1 1DR,England
The People's Meeple,101 New Street,Huddersfield,HD1 2tw,England
The Board Room,135 Newland Ave,Hull,HU5 2ES,England
Geek Retreat Leeds,"Central Arcade, Central Road",Leeds,LS1 6DX,England
TAU Gaming Ltd,36 Victoria Road,Scarborough,YO11 1SD,England
The Treehouse Board Game Cafe,41 Boston Street,Sheffield,S2 4QF,England
Random Encounter,9 Gillygate,York,YO31 7EA,England
RanSacked Board Game Lounge and Escape Rooms,24-26 Portland Road ,Worthing,BN11 1QN,England
Cafe Boardgame,Eerikinkatu 14,Helsinki,00100,Finland
Lautapelikahvila Taverna,Rautatienkatu 10,Tampere,33100,Finland
Baraka Jeux - Clermont-Ferrand,11 Rue Saint-Adjutor,Clermont-Ferrand,63000,France
La Tete dans le Pion,30 Rue des Petits gras,Clermont-Ferrand,63000,France
Archi-Jeux,10 rue Archinard,Crest,26400,France
K fee des jeux,1 quai Stephane Jay,Grenoble,38000,France
Barnade,49 rue de l'abondance 69003 Lyon,Lyon,69003,France
"Moi j'm'en fous, je triche",8 rue René Leynaud,Lyon,69001,France
Game of trolls,8 rue de Paris,Moulins,3000,France
Shrubbery,17 Rue d'Inkermann,Villeurbanne,69100,France
Le De Masque,55 Rue Monge,Dijon,21000,France
Auberge des VoyaJoueurs,Rue du chaperon rouge,Monteneuf,56380,France
L'Heure du Jeu - Champs Libres,11 boulevard Magenta,Rennes,35000,France
Bonne Pioche,92 Quai du Châtelet,Orléans,45000,France
"L'Aliane, Café Boutiquo-Jeux",13 Rue de la Cigogne,Colmar,68000,France
La Feinte de l'Ours,2 avenue du General Leclerc,Nancy,54000,France
Dé Zinc,1 Avenue Georges Clemenceau,Saint-Avold,57500,France
Baraka Jeux,6 Place de l'Homme de Fer,Strasbourg,67000,France
Les Tricheurs - Bar à jeux,7 rue des serruriers,Strasbourg,67000,France
Philibar,15 Rue du Marais Vert,Strasbourg,67000,France
Schluck N'Spiel, 5 Rue de la Chaîne,Strasbourg,67000,France
Aux Dés Calés,181 Rue Legendre,Paris,75017,France
Café Meisia,84 Rue René Boulanger,Paris,75010,France
Café Oya,25 rue de la Reine Blanche,Paris,75013,France
Le Dernier Bar avant la Fin du Monde,19 Avenue Victoria,Paris,75001,France
Le Nid Cocon Ludique,"227, rue Saint-Martin",Paris,75003,France
Loufoque,57 rue Galande,Paris,75005,France
Meeple Café,33 rue d'Alleray,Paris,75015,France
The Good Game,78 rue de Clery,Paris,75002,France
La Tartine Ludique,4 rue Pierre Curie,Sainte Genevieve des Bois,91170,France
Le QG des Avenjoueurs Bar à Jeux à Rouen,18 rue des Fossés Louis VIII,Rouen,76000,France
Cup n'dice,22 rue Sainte-Marie,Angouleme,16000,France
Le Gros Corbeau,2 Place du Palet,Angouleme,16000,France
El Joko,78 Avenue Maréchal Soult,Bayonne,64100,France
Jeux Barjo,12 Rue Saint-James,Bordeaux,33000,France
La Muse Café,10 Rue Brascassat,Bordeaux,33800,France
L'Antre Jeux,3 Rue Jules Guesde,Limoges,87000,France
Laluditavern,11 rue Valery Meunier,Pau,64000,France
Baraka Jeux - Montpellier,Allée Ulysse,Montpellier,34000,France
Game Taverne,22 Rue de Candolle,Montpellier,34000,France
Les Castors,12 rue des trésoriers de la bourse,Montpellier,34000,France
Baraka Jeux,1 Boulevard de la Gare,Toulouse,31500,France
BlastoDice,52 avenue Honoré Serres,Toulouse,31000,France
La Taverne du Troll,11 Avenue Maurice Hauriou,Toulouse,31000,France
Les Tricheurs - Bar ludique,34 rue des Blanchers,Toulouse,31000,France
Yggdrasil,65 Rue Pargaminières,Toulouse,31000,France
"Le Warp, Taverne Ludique",Rue Stephane Guilleme,La Roche sur Yon,85000,France
La Fabrik a Jeux,1bis Quai Turenne,Nantes,44000,France
Sur un plateau - Bar à jeux,36 Rue Léon Jamin,Nantes,44000,France
PlatÔbar Bar à Jeux à Aix en Provence,40 rue des Tanneurs,Aix-en-Provence,13100,France
Au Café des Meeples Avignon,160 Rue Carreterie,Avignon,84000,France
Le Barjoc,"03, rue du Docteur Honnorat",Digne-les-Bains,04000,France
Baraka Jeux - Marseille,21 Cours Julien,Marseille,13006,France
La Case Depart,23 Quai Eugene Meslin,Caen,14000,France
Café Jeux Natema.,39 Rue des Orteaux,Paris,75020,France
La Revanche,38 Avenue Daumesnil,Paris,75012,France
Les Mauvais Joueurs,46 Rue Sedaine,Paris,75011,France
La malle d'Apolline,14 avenue de Laon,Reims,51100,France
EPISODE 0,19 Rue des Magasins,Strasbourg,57000,France
Brettspielplatz - Das Spielecafé,Waldstraße 50,Berlin,10551,Germany
Interface Bar,Perleberger Str. 17,Berlin,10559,Germany
Spiele-Wirtschaft,Martin-Luther-Str. 84,Berlin,10825,Germany
Spielwiese Berlin,Kopernikusstraße 24,Berlin,10245,Germany
Gaststätte Zu den vier Winden,Hofsteder Str. 94,Bochum,44809,Germany
Voyager - Boardgame Bar Bonn,Rheingasse 7,Bonn,53113,Germany
Gastspielhaus,Heinheimer Straße 53,Darmstadt,64289,Germany
Barneby,Görlitzer Str. 11,Dresden,01099,Germany
White Rabbit ,Segerothstraße 81,Essen,45141,Germany
Spielezeitcafe,Angelburger Straße 49,Flensburg,24937,Germany
FreiSpiel,Lehener Strae 15,Freiburg,79106,Germany
Spielcafe Deichhaus Game Café,Blankwasserweg 118,Grömitz,23743,Germany
Wurfel & Zucker,Eilbeker Weg 39,Hamburg,22089,Germany
Rollen - und Brettspielverein Thoule,Ostendstraße 1,Karlsruhe,76131,Germany
ZAMgwurfelt - the board game cafe,Helene-Mayer-Ring 14,Munich,80809,Germany
Spielcafé Osnabrett,Dielingerstraße 40,Osnabrück,49074,Germany
Spielecafé der Generationen,Kolpingstr. 14,Pfarrkirchen,84347,Germany
Playhouse,Valtetsiou 49,Athens,106 81,Greece
Κάισσα Cafe,"Μεσογείων 12, Αμπελόκηποι",Athens,11527,Greece
Playce,Vasili Logothetidi 14,Athina,115 24,Greece
Playhouse,Sakellariou 21,Ioannina,453 33,Greece
Playhouse,Poulidou 6,Kavala,652 01,Greece
Playhouse,Panagouli 16,Larisa,412 22,Greece
This HOUSE RULES,Dim. Ralli 4,Marousi,151 24,Greece
Playhouse,Riga Fereou 127,Patra,262 21,Greece
Back 2 Games,Geor. Papandreou 27,Thessaloniki,54645,Greece
Harry's Spot Cafe,Aggelaki 8,Thessaloniki,54621,Greece
Playhouse,Vasilissis Sofias 5,Xanthi,671 00,Greece
TableTop Café,"6ta avenida, 3-24, zona 1",Guatemala City,01001,Guatemala
Painkiller Boardgame 2,"Rm C, 5/F, 2 Carnarvon Road, TST, KLN, Tsim Sha Tsui",Hong Kong,,Hong Kong
Wheat and Wood,"Shop 6, Ground Floor, Brilliant Court, 28 Praya, Kennedy Town",Hong Kong,,Hong Kong
Jolly Thinkers Board Game Cafe,"14F, Capricorn Centre, 155 Sai Yeung Choi St N",Mong Kok,85G9+5C,Hong Kong
Jolly Thinkers Board Game Cafe,"Bayfield Building, 99 Hennessy Rd",Wan Chai,75HC+3Q,Hong Kong
BarCraft Buda,Bartók Béla út 18,Budapest,1111,Hungary
BarCraft Nyugati,Bajcsy Zsilinszky  ut 59,Budapest,1065,Hungary
Board Game Cafe Budapest,Ferenc krt. 17,Budapest,1094,Hungary
Game Up Cafe,Zichy Jenő u. 6,Budapest,1066,Hungary
Game Up Pub,Zichy Jenő u. 4,Budapest,1066,Hungary
Vault 51 Gamer Bar,Ó u. 51,Budapest,1066,Hungary
BarCraft Debrecen,Piac u. 26 a,Debrecen,4024,Hungary
Spilavinir,Suðurlandsbraut 48,Reykjavík,108,Iceland
Dice N Dine,Koramangala 5th block jyothi nivas college road .,Bangalore,560028,India
Vincere Boardgame Cafe,"Plot 24, Lower Ground Floor, SLK NIMBUS arcade, Fortune Pride, Opposite Aura Mall, Bhopal, Madhya Pradesh",Bhopal,462039,India
The Board Game Lounge,"1st Floor, Sreela Terrace, #105, 1st Main Road, Gandhi Nagar, Adyar",Chennai,600020,India
The Board Room,"3 Beemasena Garden Street, Mylapore",Chennai,600004,India
Get on Board Cafe,"Fortune Monarch Mall, Above Taruni, 3rd floor,Rd. No. 36",Hyderabad,500034,India
Kingdom of Boardgames,"Angel CHS, Godrej Hill Rd, Khadakpada",Kalyan,421301,India
Bogglingames,42/1A Gurupada Halder Road,Kolkata,700026,India
Chai and Games Boardgame cafe,"L113,Chai and games Prime Mall, Irla Market Lane",Mumbai,400056,India
Creeda Board Game Cafe,"Ground Floor, New Excelsior Cinema, Wallace St",Mumbai,400001,India
PAIR a DICE CAFE,53 Oshiwara Link Plaza Andheri West,Mumbai,400102,India
Downtime Bali,"Jl. Gn. Tangkuban Perahu No.21, Kerobokan Kelod, Kec. Kuta Utara, Kabupaten Badung",Bali,80361,Indonesia
HD'R Comic Cafe Malang,"Jalan Bunga Coklat 11, lowokwaru",Malang,65141,Indonesia
Cafe Board,Shahid Motahari St.,Tehran,0000,Iran
Cafe Fekr,"Daneshgah Ave, District 11",Tehran,0000,Iran
Tabletop,9 Castle Street,Cork,021,Ireland
Tabletop Cork,9 Castle Street,Cork,T12 CF2R,Ireland
The Clockwork Door,"51 Wellington Quay, Temple Bar",Dublin,D02 NH04,Ireland
The Square Ball,45 Hogan Place,Dublin,D02 RF34,Ireland
Dungeons and Donuts Galway,21 Upper Abbeygate Street,Galway,H91 KC79,Ireland
Il Respiro del Drago,"Via Toniolo, 12, 54033 Carrara MS, Italy",Carrara,54033,Italy
La città del gioco,"Via delle Forze Armate, 103",Milan,20147,Italy
Ludos libra,"Via Michelangelo Buonarroti, 72",Monza,20900,Italy
Goblin Café,"Via del Borghetto, 31",Pisa,56124,Italy
Counters,"Pontypridd YMCA, Taff Street",Pontypridd,CF37 4TR,Italy
Go to Play Board Game Bar & Cafe,VIA PRINCIPE EUGENIO 112,Rome,00185,Italy
Jolly Joker Game Cafe,Corso Dante 50,Torino,10126,Italy
Yellow Submarine Tokyo,,Chiyoda-ku,,Japan
Game Bar Clantz,"146 ラポルトビル 4F, Aburayacho, Nakagyo Ward",Kyoto,604-8063,Japan
The Raven's Table - Board Game Bar,"Nagoya-shi Naka-ku Shin-Sakae 1 11 14 Tousen New Town 3F, 11, Naka Ward",Nagoya,460-0007,Japan
Dear Spiele,"4-9-1, Higashinakano",Nakano,164-0003,Japan
Kappa Castle Game & Hobby,"1-1-7 Mihama, Chatan, Okinawa Yomitan-son Nakagami-gun",Okinawa,904-0115,Japan
DDT,"542-0081 Osaka, Chuo Ward, Minamisenba, 1 Chome−13−1 竹田ビル",Osaka,5420081,Japan
Jelly Jelly Cafe 大阪心斎橋店,"Chuo Ward, Higashishinsaibashi, 1 Chome−12−19 エイトビルヂング 5階",Osaka,542-0083,Japan
Kiwi Games,"5 Chome-7-10 Nipponbashi, Naniwa Ward, Osaka, 556-0005",Osaka,556-0005,Japan
The Hearth Board Game Bar and Cafe,"阪南ビル 4f, 14-25 Nanbasennichimae, Chuo Ward",Osaka,542-0075,Japan
Cafe Hello – グロワール赤羽,大萱1-18-7グロワール赤羽2F,Otsu,5202144,Japan
Little Cave,高円寺南４丁目２６－１６　芦野ビル2階,Suginami,166-0003,Japan
Jelly Jelly Cafe Ikebukuro,"Toshima City, Nishiikebukuro, 3 Chome−27−16 広瀬ビル 2-4F",Tokyo,171-0021,Japan
Jelly Jelly Cafe Shibuya,"Shibuya City, Udagawacho, 10−2 新東京ビル 202",Tokyo,150-0042 ,Japan
Jelly Jelly Cafe Shimokitazawa,"Setagaya City, Kitazawa, 2 Chome−32−3 2F",Tokyo,155-0031,Japan
Jelly Jelly Cafe Suidobashi,"2 Chome-21-10 Misakicho, Chiyoda City",Tokyo,101-0061,Japan
Jelly Jelly Cafe 新宿店,"2 Chome-15-9 Yoyogi, Shibuya City",Tokyo,151-0053,Japan
Jelly Jelly Cafe 池袋2号店,"Toshima City, Ikebukuro, 2 Chome−12−9 広瀬ビル 3F",Tokyo,171-0014,Japan
Role & Roll Station,"6F, 26th East Building, 3-14-9 Sotokanda, Chiyoda-ku",Tokyo,,Japan
Nostalgia Board Game Cafe,納米里5-1,長泉町,411-0933,Japan
Jelly Jelly Cafe 川崎店,"Kawasaki, Kawasaki Ward, Ogawacho, 13-21 セコロTステージ201",,210-0023,Japan
Bao box,"Pramukh Towers, Westlands road",Nairobi,0000,Kenya
Good Game,Sanabel Tower 26A Jaber Al-Mubarak Street,Al Kuwayt,0000,Kuwait
Kohii Boardgame Cafe,"78-1, Lintang Sungai Pinang",Georgetown,10150,Malaysia
Tiny House Board Games Cafe,"17A, Persiaran Greentown 8, Greentown Business Centre,",Ipoh,30450,Malaysia
Lefko - A Board Games Cafe,"17A Jalan Eko Botani, Taman Eco Botanic",Iskandar Puteri,79100,Malaysia
Centlus Board Game Exchange,"14, 2-2, Jalan Setia Prima E U13/E",Klang,40170,Malaysia
Boarders Tabletop Games Cafe,"5 Jalan 127B, Wangsa Maju",Kuala Lumpur,53300,Malaysia
Centlus Board Game Exchange,"14-2-2, Jalan Setia Prima E U13/E",Kuala Lumpur,40170,Malaysia
Attack Board Game ,"First Floor, SL70, Plot 456 & 592, Gala City, Jalan Tun Jugah",Kuching,93350,Malaysia
KD Boardgames,"17-2, Jalan PJU 5/10 47810 Petaling Jaya Selangor Malaysia",Petaling Jaya,47810,Malaysia
Meeples Cafe,"64-1, Jalan SS15/4D",Subang  Jaya,47500,Malaysia
Board Game Cafe.net,157-1 Jalan Lancang Taman Sri Bahtera,Subang Jaya,56100,Malaysia
Meeples Cafe,"64-1, Jalan SS15/4D",Subang Jaya,47500,Malaysia
Punto & Aparte,Manuel M Ponce 112,Aguascalientes,20070,Mexico
La Caravana GS,La Merced 664,Guadalajara,44500,Mexico
La Madriguera ,"Av. Tepeyac 947, Chapalita Sur",Guadalajara,45046,Mexico
El Dragon Board Games Cafe,Clemencia Borja Taboada 534-C,Juriquilla,76230,Mexico
El Ocho,Av. México #111 Col. Hipódromo Condesa,Mexico City,06100,Mexico
La Caravana CDMX,"Fresas 59, Tlacoquemecatl del Valle",Mexico City,03200,Mexico
Raven Folks,"Chihuahua 142, Roma Nte., Cuauhtémoc",Mexico City,06700,Mexico
La Guarida,Blvd. Rogelio Cantú Gómez 1000,Monterrey,64639,Mexico
ReRoll,Av. Del Estado 215A Col. Tecnológico,Monterrey,64700,Mexico
Kawa Games,"Av Venustiano Carranza 1055, De Tequisquiapan",San Luis Potosí,78230,Mexico
Crossroads BG Cafe,Julian de los Reyes 504,San Luis Potosí City,78280,Mexico
Brainstorm Cafe,Alexander Pushkin St 52,Chisinau,0000,Moldova
Spellencentrum Agartha,Legmeerdijk 169a,Aalsmeer,1432 KA,Netherlands
2 Klaveren,De Clercqstraat 136,Amsterdam,1052 NP,Netherlands
Friends and Foes,Van Woustraat 202-A,Amsterdam,1073 NA,Netherlands
Escaping Breda,"Boschstraat 112 -116,",Breda,4811 GK,Netherlands
Barbaar,Sint Agathaplein 4,Delft,2611 HR,Netherlands
Bordspelers,Lange Groenendaal 82,Gouda,2801 LV,Netherlands
Purperen Draak,Nieuwe Ebbingestraat 86a,Groningen,9712,Netherlands
The Boardroom,Kruisweg 60-62,Haarlem,2011LE,Netherlands
Spellenhuis,Torenstraat 142,The Hague,2513 BW,Netherlands
Cakes n Ladders,173 Symonds St,Auckland,1010,New Zealand
Dice & Fork,"Shop 10a, 210 Victoria Street West",Auckland,1010,New Zealand
Escapist,36 Bryce Street,Hamilton,3204,New Zealand
Flock,12 Church Street,Nelson,7010,New Zealand
Winterdale Tavern,111 Main Road,Paraparaumu,5032,New Zealand
Caffeinated Dragon,70 Victoria Street,Wellington,6011,New Zealand
Counter Culture,211 Victoria Street,Wellington,6011,New Zealand
NIBCARD Games Cafe,"Plot 505B, 46 Crescent, 4th Avenue",Gwarinpa,,Nigeria
Board Game Cafe Samo,Orce Nikolov 75,Skopje 1000,1000,North Macedonia
Jack Straws,697-703 Upper Newtownards Road,Belfast,BT4 3NT,Northern Ireland
Robins Hobby Cafe,145 Holywood Road,Belfast,BT4 3BE,Northern Ireland
Grimfield Games,Storgaten 90,Grimstad,4877,Norway
Work Work,Munkegata 58,Trondheim,7011,Norway
Eureka Cafe Ludico,Av. Petit Thouars 3825 San Isidro,Lima,5127,Peru
La Isla del Mono,Av. Manuel Cipriano Dulanto 1581 Pueblo Libre,Lima,15084,Peru
Ludo's Board Game Bar & Cafe,"26 Sct. Torillo St, Diliman, Quezon City",Manila,1103,Philippines
Play Nation,"Level 1, Phase 1, 216 Katipunan Ave.",Manila,1108,Philippines
Ludo: Boardgame Bar & Cafe,26 Scout Torillo st.,Quezon City,1100,Philippines
Graciarnia,ul. Dmowskiego 15,Gdansk,80-243,Poland
Ludiversum,ul. Kamienna 7/1,Katowice,40-067,Poland
Boardowa,Topolowa 52,Krakow,31-506,Poland
Hex,Dwernickiego 5,Krakow,31-530,Poland
K6 Pub - Planszówki & Cocktail Bar,Piotrkowska 6/4,Łódź,90-406,Poland
Pub Goblin,Wschodnia 74,Łódź,90-266,Poland
Kawadziescia,Tadeusza Krepowieckiego 10,Warsaw,01-456,Poland
Paradox Cafe,Anielewicza 2,Warsaw,00-157,Poland
AR-Bar,Rynek 5,Wroclaw,50-106,Poland
Hex,Dubois 33/35b,Wroclaw,50-207,Poland
Ludoclube - Abre o Jogo,Av. Padre Himalaia 39,Amadora,2720-238,Portugal
Pow Wow Games and Drinks,Rua Professor Fernando da Fonseca 19 22,Lisboa,1600-617,Portugal
AJogar Équeagenteseentende,Rua Joaquim Maria de Melo 244,Vila do Conde,4480-002,Portugal
Creative Board Gaming,25 George Enescu,Bucharest,010303,Romania
Snakes&Wizards,5 Ilarie Chendi Street,Bucharest,021503,Romania
The Guild Hall,Samuil Micu 4,Cluj-Napoca,400014,Romania
Harmony Cafe Iași,Bulevardul Carol 1,Iasi,700505,Romania
Retro Cafe,"Str. Lascăr Catargi, nr.50",Iasi,700107,Romania
FatCats Board Game Cafe Bar,"Str. Principatele Unite, nr. 5",Ploiesti,100331,Romania
Le & Le Games,str. Artei nr. 3,Targu-Mures,540056,Romania
Challenge Round,Alyamamah Street,Jeddah,23524,Saudi Arabia
Unboxed,33-35 South Harbour Street,Ayrshire,KA7 1JA,Scotland
Games Hub Edinburgh ,101 Lauriston Place ,Edinburgh,EH3 9JB,Scotland
Geek Retreat Edinburgh,30 Nicolson Square,Edinburgh,EH8 9BX,Scotland
Noughts and Coffees Board Game Café,26 Morrison Street,Edinburgh,EH3 8BH,Scotland
Dice Roll Café,350 Sauchiehall Street,Glasgow,G2 3HW,Scotland
Geek Retreat Glasgow,63 Union Street,Glasgow,G1 3RB,Scotland
Lucky Sparrow,1091 Pollokshaws Road,Glasgow,G41 3YG,Scotland
Lucky Sparrow Games Cafe,1091 Pollokshaws Road,Glasgow,G41 3YG,Scotland
Max XP Gaming,29-31 Duke Street,Glasgow,G4 0UL,Scotland
The Flying Duck,142 Renfield Street,Glasgow,G2 3AU,Scotland
West End Games,18 Woodlands Road,Glasgow,G3 6UR,Scotland
Settlers,40 Castle Street,Hamilton,ML3 6BU,Scotland
Geek Retreat Motherwell,54 Brandon Parade East,Motherwell,ML1 1LY,Scotland
Comicrazy,45 Old Sneddon Street,Paisley,PA3 2AN,Scotland
Comicrazy Cafe,45 Old Sneddon St,Paisley,PA3 2AN,Scotland
Big Dog Books,66 Scott Street,Perth,PH2 8JW,Scotland
Common Ground,40B Cowane St,Stirling,FK8 1JR,Scotland
Astal,27 Kralja Milana,Belgrade,11000,Serbia
Gaming Centar,Trg Marije Trandafil 14,Novi Sad,21000,Serbia
Experience Point,"803 King George's Avenue, #02-190",Singapore,200803,Singapore
Play Nation HQ,58 Prinsep St,Singapore,188686,Singapore
Play Nation Our Tampines Hub,"1 Tampines Walk, #B1-17/18/19",Singapore,528523,Singapore
Play Nation Scape,2 Orchard Link,Singapore,237978,Singapore
Settlers Cafe,39 North Canal Road,Singapore,059295,Singapore
The King and Pawn,"24 Purvis St, Level 2",Singapore,188601,Singapore
The Mind Cafe,60A Prinsep Street,Singapore,188664,Singapore
Dobra Poteza,Zelezna 14,Ljubljana,1000,Slovenia
The Big Box Café,"18 Roeland Street, Gardens",Cape Town,8001,South Africa
Boardgame cafe OZ,강남구 봉은사로2길 13,Seoul,135-080,South Korea
The Dice Latte,"75 Mangu-ro 12-gil, Hwigyeong-dong, Dongdaemun-gu",Seoul,02452,South Korea
Kaburi Cafe,"Passeig de Sant Joan, 11",Barcelona,08010,Spain
Continental Cafe Pub,"C/ Seminario, 11",Granada,18011,Spain
La Pifia,C/ Hospitalers de Sant Joan n.2 bajos,Lleida,25005,Spain
Epic Board Game Cafe,Calle Los Vascos 3,Madrid,28040,Spain
Comejuega,"Av. de Manuel Torres, 5",Málaga,29003,Spain
Play Planet Coffe & Shop,Calle San Lorenzo Street 18,Málaga,29001,Spain
GTS Mallorca,"Carrer Rosselló i Caçador, 7",Palma De Mallorca,07004,Spain
Bruixes i Fades,"Carrer de Rubén Darío, 18",Valencia,46021,Spain
Café Sirius,Kungsgatan 19,Göteborg,41119,Sweden
Dice Cafe STHLM,Polhemsgatan 21,Stockholm,112 30,Sweden
ManaBar,Schützenmattstrasse 31,Basel ,4053,Switzerland
Well Played,Bahnhofstrasse 57,Dübendorf,8600,Switzerland
DuBischDra,Geerenweg 23B,Zürich-Altstetten,8048,Switzerland
Tobey's Game Cafe 頭比家,三民區博仁街1號,Kaohsiung,807,Taiwan
Diceman cafe,"No.85, Jieyun Rd., Zhonghe Dist.",New Taipei City,235,Taiwan
MGZ Board Game,"No. 6, Lane 137, Section 1, Nangang Road, Nangang District",Taipei,115,Taiwan
Sunny Board Game,"Guangfu South Road, Lane 66, No. 28",Taipei,105,Taiwan
XDD Cafe,"No. 185號, Jinzhou Street, Zhongshan District",Taipei,104,Taiwan
Witch House,"No. 7號, Lane 56, Section 3, Xinsheng South Road, Da’an District",Taipei City,106,Taiwan
Battlefield Bangkok,"71 Sukhumvit 101/1 Rd, Bang Chak, Prakanong",Bangkok,10260,Thailand
Hook! Board game cafe,"74 Phra Athit Rd, Khwaeng Chana Songkhram, Khet Phra Nakhon, Krung Thep",Bangkok,10200,Thailand
Kopi-O Board Game Cafe,"160, 33 ถนน สุขุมวิท, Khlong Toei Nuea",Bangkok,10110,Thailand
Ninive Game Store,"1108/13-14 Sukumvit Plus Soy 1 Pra Kanong Nua, Klong Toey",Bangkok,10110,Thailand
Red Fox breakfast & geek bar,"Wizdom 101 mall, 101 Sukhumvit Rd, Bang Chak, Phra Khanong, Bangkok 10260",Bangkok,10260,Thailand
Win Win Board Game Cafe,16 Soi Kosum Ruam Chai,Bangkok,10210,Thailand
Dice Club,"Suthep, Mueang Chiang Mai District",Chiang Mai,50200,Thailand
Game Tree Cafe,"200/14, B-Avenue, M.1, Suthep Rd",Chiang Mai,50200,Thailand
Meerkatto Board Games Cafe,Meerkatto 555/15 Fifth Avenue Nongchom,Chiangmai,50210,Thailand
Play Board Game Cafe,Play board game cafe,Hatyai,90110,Thailand
Zon de' Coffee,80/39-41 ชั้น 1 อาคารพาราไดซ์แมนชั่น ถ.นเรศวร ต.ป่าตาล,Lopburi,15000,Thailand
Da Vinci Board Game Cafe,Kazakistan Cd. 69-71 D:A,Ankara,6490,Turkey
Goblin Oyun Cafe,General Asim Gunduz,Kadikoy/Istanbul,34714,Turkey
The Six,"Burj Vista Tower, The Boulevard",Dubai,00000,United Arab Emirates
Unwind Speciality Boardgame Cafe,"Hessa Street, Barsha 3",Dubai,0000,United Arab Emirates
Saturn,200 41st St S,Birmingham,35222,United States
Lucky Dice Cafe,"7914 Memorial Parkway SW, Suite B7",Huntsville,35802,United States
Board Game Knights,1400 SW Susana St. Ste. 6,Bentonville,72712,United States
The Meeple’s Board Game Cafe,3821 E Baseline Rd J140,Gilbert,85234,United States
The Silver Key Lounge,1837 W Guadalupe Rd Ste 106,Mesa,85202,United States
Snakes & Lattes,20 West 6th St.,Tempe,85281,United States
"Requiem Coffee, Tea, and Fantasy",280 S Clementine Street,Anaheim,92805,United States
Eudemonia,2154 University Ave,Berkeley,94704,United States
Victory Point Cafe,1797-A Shattuck Ave,Berkeley,94709,United States
Geeky Teas,2220 W Magnolia Blvd,Burbank,91506,United States
Guildhall,3516 W Victory Blvd,Burbank,91505,United States
Zander's Game House,2270 Ventura Blvd,Camarillo,93010,United States
The Wheelhouse,5841 Sacramento Ave,Dunsmuir,96025,United States
Off The Shelf Games,109 Rea Avenue,El Cajon,92020,United States
GameHaus Cafe,1800 S Brand Blvd #107,Glendale,91204,United States
GameCraft Brewing,23301 Avenida De La Carlota Suite C,Laguna Hills,92653,United States
The Dragon and Meeple,3742 South Flower St.,Los Angeles,90007,United States
Wine or Lose Board Game Cafe,131 Kentucky St,Petaluma,94952,United States
Characterz Cafe,5424 Sunol Blvd,Pleasanton,94556,United States
PLATFORM 248,248 9th St.,San Francisco,94103,United States
Tabletop Tap House,175 4th Street,San Francisco,94103,United States
The Game Parlour,1342 Irving St.,San Francisco,94122,United States
Guildhall,6741 Bright Ave,Whittier,90601,United States
Board Game Republic,"900 W. 1st Ave, Ste, 130",Denver,80223,United States
Game Lounge,1490 Eudora Street,Denver,80220,United States
The Tabletop Tap,3394 S Broadway,Englewood,80113,United States
Purple cup cafe/Gryphons games and comics ,1119 W Drake Road,Fort Collins,80526,United States
The Haunted Game Cafe,3307 S College Ave,Fort Collins,80525,United States
Board Fox Games & Coffee,623 Main Street,Grand Junction,81501,United States
Enchanted Grounds,8800 S. Colorado Blvd. Suite A,Highlands Ranch,80126,United States
Game Train USA,2690 E County Line Rd Unit E,Highlands Ranch,80126,United States
Enchanted Grounds - Littleton,3615 W. Bowles Ave. Unit 6,Littleton,80123,United States
The Gaming Goat,6750 S. Pierce St,Littleton,80128,United States
Lair of Abraxas,12004 Melody Dr,Westminster,80234,United States
The Portal,60 Hilliard St,Manchester,06042,United States
The Board Room,514 Main Street,Middletown,06457,United States
Hawkwood Games,50 Broad Street,Milford,06460,United States
Elm City Games,71 Orange St.,New Haven,06510,United States
Elm City Social,266 College Street (at Chapel Street),New Haven,06510,United States
Board Room DC,1737 Connecticut Avenue NW,Washington,20009,United States
Red Bear Brewing Co,209 M ST NE ,Washington,20002,United States
Table Talk SRQ Boardgame Cafe,3999 Cortez Rd W,Bradenton,34210,United States
The Adventure Game Store,6895 Stirling Rd,Davie,33314,United States
Java Game Haus,11018 Old St Augustine Rd,Jacksonville,32257,United States
The Retro Room,126 Simonton Street,Key West,33040,United States
Waypoint 6 Tavern & Geekery,9057 Ulmerton Road,Largo,33771,United States
Mac & Chess,12486 SW 8 ST,Miami,33184,United States
The Cloak & Blaster,875 Woodbury Rd Ste 108,Orlando,32828,United States
The Great Games Library,2459 Mahan Dr,Tallahassee,32308,United States
Your Turn - A Board Game Cafe,38430 5th Ave,Zephyrhills,33542,United States
The Rook & Pawn,294 W Washington St Suite 300,Athens,30601,United States
Giga-Bites Tabletop Cafe,1851 Roswell Rd,Marietta,30062,United States
Battle & Brew,5920 Roswell Rd,Sandy Springs,30328,United States
Chromatic Dragon,514 Martin Luther King Jr Blvd,Savannah,31401,United States
Slow Your Roll,190 Keawe St. Ste. 21,Hilo,96720,United States
"G3 Games, Grinds, and Gallery",2801 Grand Ave Suite 1240,Ames,50010,United States
Good,423 N 3rd. St.  ,Burlington,52601,United States
So Many Board Games,1301 Pierce Street,Sioux City,51105,United States
Room and Boards Cafe,12598 Fairview Ave Suite 102,Boise,83713,United States
Bonus Round Cafe,3230 N Clark St,Chicago,60657,United States
Chicago Board Game Cafe,1965 N. Milwaukee Ave,Chicago,60647,United States
Relo's Board Game & Dessert Cafe,1321 W. Taylor St.,Chicago,60607,United States
The Hungry Hippo,2950 N Water St,Decatur,62526,United States
Evanston Games & Cafe,10 Maple Ave,Evanston,60201,United States
D12 Cafe,17258 Oak Park Avenue,Tinley Park,60477,United States
Books & Brews - Brownsburg,"1551 N Green St, Suite I",Brownsburg,46112,United States
Books & Brews - Carmel,61 West City Center Drive,Carmel,46032,United States
Hitherto Coffee & Gaming Parlour,1558 N State St,Greenfield,46140,United States
The Librarium,310 Main St.,Hobart,46342,United States
Books & Brews - Broad Ripple,6420 Cornell Ave,Indianapolis,46220,United States
Books & Brews - Mass Ave,643 Massachusetts Ave,Indianapolis,46204,United States
Books & Brews - Mothership,9402 Uptown Dr Suite 1400,Indianapolis,46256,United States
Books & Brews - South Indy,"3808 Shelby St, Suite 1",Indianapolis,46227,United States
Doughnuts & Dragons,3838 E. 82nd St.,Indianapolis,46240,United States
Kingmakers,881 Massachusetts Avenue,Indianapolis,46204,United States
Pearl Street Game & Coffee House,405 Pearl Street,Jeffersonville,47130,United States
Merlin’s Beard,220 Columbia St,Lafayette,47901,United States
Books & Brews - Muncie,2100 W. White River Blvd. B,Muncie,47303,United States
Books & Brews - Noblesville,13230 Harrel Parkway #100,Noblesville,46060,United States
Books & Brews - Zionsville,65 Boone Village,Zionsville,46077,United States
RPG - Restaurant Pub and Games,724 Massachusetts St.,Lawrence ,66044,United States
Mission: Board Games/Urban Prairie Coffee,5606a Johnson Dr,Mission,66202,United States
Sente Game & Refreshments,132 E Douglas Ave,Wichita,67202,United States
Cafe Meeples,200 W Main St,Richmond,40475,United States
d4 Tabletop Gaming Cafe,8228 Oak St,New Orleans,70118,United States
The Rook Cafe,4516 Freret St,New Orleans,70115,United States
Adventure Pub,190 Massachusetts Ave,Arlington,02474,United States
The Castle Cafe,240 Rantoul St.,Beverly,01915,United States
Tavern of Tales,1478 Tremont Street,Boston,02120,United States
Knight Moves,1402 Beacon St,Brookline,02446,United States
3 Trolls Games & Puzzles,"7 Summer St, Ste 16",Chelmsford,01824,United States
Avalon Lounge & Game Cafe,386 Dwight St.,Holyoke,01040,United States
Knight Moves,1159 Broadway,Somerville,02144,United States
The Games Club,"3473 Merchants Boulevard, Ste G",Abingdon,21009,United States
No Land Beyond,2125 Maryland Ave,Baltimore,21218,United States
Ten Ren's Tea Tine,7418 Baltimore Ave #3208,College Park,20740,United States
The Board And Brew,8150 Baltimore Ave,College Park,20740,United States
Games and Stuff,7385 Baltimore Annapolis Blvd,Glen Burnie,21061,United States
Queen City Cinema Club,128B Main Street,Bangor,04401,United States
Gate keeper Games,3127 12 Mile Rd,Berkley,48072,United States
The Corner,344 W Nine Mile Rd,Ferndale,48220,United States
K.C. Bonker's Toys and Coffee,119 Quincy St,Hancock,49930,United States
Chatterbox Pub,2229 E 35th Street,Minneapolis,55407,United States
Steamship Coffee and Games,711 W Lake St,Minneapolis,55408,United States
Lodestone Coffee and Games,10982 Cedar Lake Road,Minnetonka,55305,United States
Fantasy Flight Games Center,"1975 W County Rd B2, Ste 1",Roseville,55113,United States
Branson Boardgame Cafe,"103 S Business, Hwy 65",Branson,65616,United States
Play Game Cafe,107 W. Lexington,Independence,64050,United States
Pawn and Pint,613 Walnut St,Kansas City,64106,United States
Maryville Board Game Cafe,324 N. Main Street,Maryville,64468,United States
Pieces Board Game Bar & Cafe,1535 S 8th St,Saint Louis,63104,United States
The Wayward Kraken,871 Howard Ave,Biloxi,39530,United States
This House of Books,224 N Broadway,Billings,59101,United States
Phoenix Pearl Tea,13 N Broadway Ave,Red Lodge,59068,United States
Well Played Board Game Cafe,58 Wall Street,Asheville,28801,United States
Gamers Geekery & Tavern,107 Edinburgh S Dr #213,Cary,27511,United States
Atomic Fern,108 E Parrish St,Durham,27701,United States
Carolina Tabletop Games,315 Main St #1,Pineville,28134,United States
The Kitchen Table,5629 Creedmoor Rd,Raleigh,27612,United States
The Sideboard,4107 Oleander dr ste C,Wilmington,28403,United States
Spielbound,3229 Harney Street,Omaha,68131,United States
Boards and Brews,941 Elm St,Manchester,03101,United States
Play Hoboken,"1012 Grand Street, Fl 3",Hoboken,07030,United States
Empire Board Game Library,3503 Central Ave NE,Albuquerque,87106,United States
Slice and Dice Pizzeria,5720 McMahon Blvd NW Suite B,Albuquerque,87114,United States
Groundswell Tabletop Gaming,9730 W Tropicana Ave Ste 130,Las Vegas,89147,United States
Meepleville Board Game Cafe,4704 W. Sahara Ave.,Las Vegas,89102,United States
The Glass Die,675 Holcomb Ave,Reno,89502,United States
Iron Buffalo Comics,656 Millersport Hwy,Amherst,14226,United States
Sip N' Play,471 5th Ave,Brooklyn,11228,United States
The Brooklyn Strategist,333 Court Street,Brooklyn,11231,United States
Gather & Game,212 Grant Street,Buffalo,14213,United States
House Rules Cafe,757 Columbia St,Hudson,12534,United States
Main Street Board Game Cafe,307 Main St.,Huntington,11743,United States
Hex NYC - 1st Avenue,1462 1st Avenue,New York,10075,United States
Hex NYC - Broadway,2871 Broadway,New York,10025,United States
Main Street Board Game Cafe,"307 Main Street, Huntington",New York,11743,United States
Uncommons NYC,230 Thompson Street,New York,10012,United States
Bard & Baker Board Game Cafe,501 Broadway,Troy,12180,United States
Wanna Play Cafe,15 Auert Ave,Utica,13502,United States
Tabletop Board Game Cafe,1810 W. 25th St.,Cleveland,44113,United States
Kingmakers,17 Buttles Avenue,Columbus,43215,United States
Tabletop Game Cafe,4316 N High St,Columbus,43214,United States
The Forge,1375 Bethel Rd,Columbus,43220,United States
Omni Board Game Parlor,21950 Lakeshore Blvd,Euclid,44123,United States
A Game Knight,"345 N 3rd St, Hamilton, OH 45011",Hamilton,45011,United States
Divrsion,1151 Stone Dr. D4,Harrison,45030,United States
The Malted Meeple,53 Milford Dr,Hudson,44236,United States
D20 : A Bar With Characters,2144 E Whipp Rd,Kettering,45440,United States
The Side Quest,17900 Detroit Ave,Lakewood,44107,United States
Sapphire City Board Game Parlor,129 S. Main Street,North Canton,44720,United States
Recess Games,26636 Brookpark Ext,North Olmsted,44070,United States
Books & Brews - Oxford,107 East Church Street,Oxford,45056,United States
The Dragon’s Roost,6600 W Sylvania Ave STE 3C,Sylvania,43560,United States
Great Oaks Tavern,210 Great Oaks Trail,Wadsworth,44281,United States
The Game Lobby,807 North Broadway ,Ada,74820,United States
Edmond Unplugged,117 S Broadway,Edmond,73034,United States
Covenant,8156 S. Lewis Avenue,Tulsa,74137,United States
Shuffles Board Game Cafe,207 E. Archer St,Tulsa,74103,United States
Modern Games,550 SW Industrial Way #150,Bend,97702,United States
Gamagora Geekhouse,254 sw Madison Ave ,Corvallis,97333,United States
Game Knight,3037 N Williams Ave,Portland,97227,United States
Guardian Games,345 SE Taylor St,Portland,97214,United States
Mox Boarding House,1938 W Burnside St,Portland,97209,United States
Ticket to Play Board Game Cafe,5008 Commercial St. SE,Salem,97306,United States
Bunsenbrewer,16506 SE 362nd Ave,Sandy,97055,United States
Senet Game Bar,12553 SW Main St #201,Tigard,97223,United States
The Adventurer's Guild,3846 Union Deposit Rd,Harrisburg,17109,United States
Jokers Are Wild Game Cafe,125 N. First Street,Lehighton,18235,United States
The Game Table Cafe,4900 Carlisle Pike Hampden Center,Mechanicsburg,17050,United States
Queen & Rook Game Cafe,607 S. 2nd St.,Philadelphia,19119,United States
The Basement Board Game Cafe,6109 Ridge Ave,Philadelphia,19128,United States
Thirsty Dice,1642 Fairmount Ave,"Philadelphia,",19130,United States
Mana Boardgame Tavern,919 Western Ave,Pittsburgh,15233,United States
Victory Pointe,1113 East Carson St,Pittsburgh,15203,United States
The Game Chateau,1112 Highway 315,Wilkes-Barre,18702,United States
Good Game Grill,53 Weybosset Street,Providence,02903,United States
The Red Barn,2333 A North Pleasantburg Drive,Greenville,29609,United States
The Side Deck - Gaming Cafe,5060 Sunset Blvd,Lexington,29072,United States
What's the Scoop Ice Cream & Board Game Cafe,214 South Main Avenue,Erwin,37650,United States
What's the Scoop? Ice Cream,104 E. Market Street,Johnson City,37604,United States
Game Point Café,107 S. 11th Street,Nashville,37206,United States
4th Tap Brewing,10615 Metric Blvd.,Austin,78758,United States
Emerald Tavern,"9012 Research Blvd, Suite C1",Austin,78758,United States
Vigilante,"7010 Easy Wind Drive, Ste 150",Austin,78752,United States
Game Theory Board Game Lounge,"804 S Main Street, Fort Worth TX 76104",Fort Worth,76104,United States
Nerdvana Frisco,5757 Main St #112,Frisco,75034,United States
Asgard Games,3302 S Shepherd Dr,Houston,77098,United States
Coral Sword,1318 Telephone Rd,Houston,77023,United States
Tea + Victory,2030 E T C Jester Blvd,Houston,77008,United States
Battlehops Brewing,6801 Hwy Blvd,Katy,77494,United States
Table Top Generals,2543 Jackson Keller Rd,San Antonio,78230,United States
The Printed Meeple,13032 Nacogdoches Road,San Antonio,78217,United States
Boards and Bites Cafe,1851 Troup Hwy,Tyler,75701,United States
King's Landing,1427 S Valley Mills Dr,Waco,76711,United States
The Sunset Room,1781 Sidewinder Dr.,Park City,84060,United States
Good Move Cafe,1 E Center St #100,Provo,84601,United States
Watchtower Coffee & Comics,1588 South State St,Salt Lake City,84115,United States
The Board Room,925 N Garfield St,Arlington,22201,United States
Meeples Cafe & Games,8318 Timberlake Road Suite A,Lynchburg,24502,United States
Crossroads Tabletop Tavern,9412 Main St,Manassas,20110,United States
the boardroom board game cafe,3 Mill Street,Burlington,5446,United States
Mox Boarding House,13310 Bel-Red Rd.,Bellevue,98005,United States
Zulu's Board Game Cafe,10234 Main St,Bothell,98011,United States
Ashley's Pub,"409 Pacific Ave, Suite 101",Bremerton,98337,United States
AFK Tavern,1510 41st St,Everett,98201,United States
Around the Table Game Pub,7600 196th St. SW  #300,Lynnwood,98036,United States
Blue Highway Games,2203 Queen Anne Ave N,Seattle,98109,United States
Cafe Cosmos,2929 1st Ave.,Seattle,98121,United States
Meeples Games,3727 California Ave SW #2B,Seattle,98116,United States
Mox Boarding House,5105 Leary Ave NW,Seattle,98107,United States
Uptown Espresso and Gameporium,2504 4th Ave,Seattle,98121,United States
Roll Play,449 State St unit B,Madison,53703,United States
Oak and Shield,600 E Ogden Ave,Milwaukee,53202,United States
42 Ale House,3807 S Packard Ave,Saint Francis,53235,United States
Galaxy Comics Games and More,925 Clark St,Stevens Point,54481,United States
Gemini Games,193 W Main St,Stoughton,53589,United States
"Binary: Games, Food, and Spirits",9105 W Lincoln Ave.,West Allis,53227,United States
Cafe Hội Đà Nẵng,46 Nguyễn Chí Thanh,Da Nang,550000,Vietnam
Board Game Việt,15 Bùi Ngọc Dương,Hanoi,100000,Vietnam
GG Club,"15 Bui Ngoc Duong St., Bach Mai Ward, Hai Ba Trung District",Hanoi,100000,Vietnam
Gotham Board Game & Coffee,"Ngõ 106 Chùa Láng, Hà Nội",Hanoi,100000,Vietnam
LOOK - Board Game Station,136 Bùi Thị Xuân,Hanoi,64000,Vietnam
Meeple Village Boardgames & Cafe,14 Phạm Huy Thông,Hanoi,100000,Vietnam
The Nest,Tầng 2 4A Tràng Thi,Hanoi,100000,Vietnam
RetroSaigon Cafe,"85/6 Pham Viet Chanh, ward 19,  district Binh Thanh",Ho Chi Minh,,Vietnam
Board Game Station,"30 Cô Bắc, P.Cầu Ông Lãnh, Q.1",Hồ Chí Minh City,70000,Vietnam
Chance & Counters,23 High Street,Cardiff,CF10 1PT,Wales
"Board, Isle of Wight",St James Street,Newport,PO30 1LQ,Wales
